LEMUR-1                 
1 40044U 14033AL  26204.33538041  .00001384  00000+0  16415-3 0  9999
2 40044  97.7918 353.3487 0047152 320.8149  38.9656 14.85354668650833
LEMUR-2-GREENBERG       
1 42837U 17042N   26203.94901048  .00019439  00000+0  62365-3 0  9996
2 42837  97.3839  24.4400 0007639 227.5103 132.5494 15.32339048493860
LEMUR-2-ANDIS           
1 42838U 17042P   26203.95782004  .00025435  00000+0  72181-3 0  9997
2 42838  97.3692  24.7629 0007627 226.5024 133.5586 15.36171560493941
LEMUR-2-MONSON          
1 42839U 17042Q   26204.10184621  .00017282  00000+0  61671-3 0  9990
2 42839  97.4103  24.5078 0005861 213.0819 147.0055 15.28924414493651
LEMUR-2-FURIAUS         
1 42840U 17042R   26203.96709052  .00020637  00000+0  68330-3 0  9993
2 42840  97.3787  22.3327 0005636 296.2967  63.7695 15.31323478493684
LEMUR-2-PETERG          
1 42841U 17042S   26204.48468229  .00021806  00000+0  63770-3 0  9992
2 42841  97.4004  29.6143 0003966 187.4253 172.6933 15.35280867494007
LEMUR-2-DEMBITZ         
1 42842U 17042T   26204.57508578  .00017540  00000+0  58163-3 0  9995
2 42842  97.3836  25.9869 0005380 236.6769 123.3958 15.31310180493912
LEMUR-2-ZACHARY         
1 42845U 17042W   26204.04218123  .00060078  00000+0  94824-3 0  9992
2 42845  97.3580  36.5204 0003078 214.2552 145.8503 15.53318099494766
LEMUR-2-AMANDA-SVANTE   
1 48269U 21034B   26204.20252856  .00036673  00000+0  10330-2 0  9996
2 48269  97.5742 283.4904 0004786 125.9635 234.2053 15.36348536286583
LEMUR-2-SPECIAL-K       
1 48273U 21034F   26204.20531502  .00347401  00000+0  19481-2 0  9999
2 48273  97.5611 294.0251 0005994 210.7162 149.3754 15.78328874287344
LEMUR-2-EMBRIONOVIS     
1 56970U 23084AQ  26204.37613381  .00014130  00000+0  37474-3 0  9996
2 56970  97.6330 349.9973 0008967 176.9139 183.2162 15.38397436173246
LEMUR-2-DEVERILL-M-T    
1 57391U 23100F   26204.41116637  .00026252  00000+0  62916-3 0  9997
2 57391  99.4452 253.6815 0004990 262.7805  97.2868 15.41409931166822
LEMUR-2-BASS            
1 58259U 23174D   26204.51085786  .00018333  00000+0  40058-3 0  9997
2 58259  97.3838 289.7585 0007068  52.2558 307.9330 15.44209998150968
LEMUR-2-JK0903EM1407    
1 58336U 23174CJ  26204.23650120  .00028584  00000+0  45247-3 0  9996
2 58336  97.3918 295.7684 0002921 357.9462   2.1779 15.53397670151329
LEMUR-2-MJR092620       
1 58340U 23174CN  26204.22207085  .00020843  00000+0  42714-3 0  9994
2 58340  97.3967 294.9463 0004518 359.5789   0.5456 15.46089805151210
LEMUR-2-NIMBUS2000      
1 58899U 24022A   26204.38418389  .00022052  00000+0  52874-3 0  9996
2 58899  97.4082  54.8710 0007846 359.5902   0.5337 15.41383552137842
LEMUR-2-VALHALLA        
1 58900U 24022B   26204.13275487  .00016810  00000+0  41338-3 0  9990
2 58900  97.4083  54.5774 0008368 355.7058   4.4115 15.40670183137804
LEMUR-2-CAEL            
1 58903U 24022E   26204.30595876  .00018236  00000+0  42823-3 0  9993
2 58903  97.4063  55.7544 0006249 338.2355  21.8626 15.42063777137903
LEMUR-2-JOHNNYTRUONG    
1 59146U 24043BA  26204.34972754  .00048593  00000+0  53296-3 0  9999
2 59146  97.5396 358.3729 0003595  67.1091 293.0546 15.63096316133689
LEMUR-2-TOMATOKECHUP    
1 60471U 24149D   26204.18932006  .00011667  00000+0  32750-3 0  9991
2 60471  97.3787 286.3428 0003458 108.0349 252.1272 15.36706847107690
LEMUR-2-STELLA          
1 60533U 24149BT  26204.21152092  .00011056  00000+0  63845-3 0  9994
2 60533  97.6726 286.8402 0001481 122.3679 237.7695 15.12495058105948
LEMUR-2-MARHISYAM       
1 60536U 24149BW  26204.47033548  .00009417  00000+0  55364-3 0  9994
2 60536  97.6869 287.5851 0001957  55.2489 304.8925 15.11892167105961
LEMUR-2-AHMED-ASRAR     
1 60576U 24149DN  26204.46844673  .00011520  00000+0  64781-3 0  9997
2 60576  97.6992 289.8194 0001911 180.7299 179.3929 15.13441206106056
LEMUR-2-LLOYD           
1 60577U 24149DP  26204.49936955  .00010637  00000+0  66043-3 0  9997
2 60577  97.6738 285.6616 0004085  49.6539 310.5046 15.09867192105872
LEMUR-2-SQUIRRELCOMM    
1 60578U 24149DQ  26204.50077691  .00006206  00000+0  41276-3 0  9991
2 60578  97.6705 285.3042 0003885 288.6334  71.4471 15.07513592105877
LEMUR-2-SIERRINI        
1 60579U 24149DR  26204.50065196  .00011944  00000+0  70551-3 0  9992
2 60579  97.6835 287.2691 0006022  68.6196 291.5676 15.11643902105945
LEMUR-2-WILSON          
1 62694U 25009CP  26204.16513441  .00002251  00000+0  20949-3 0  9998
2 62694  97.7016 281.9988 0001537 276.7410  83.3636 14.95300842 82732
LEMUR-2-STAR-FOX        
1 62696U 25009CR  26204.18313012  .00008107  00000+0  60794-3 0  9992
2 62696  97.6905 285.5326 0001395   8.2917 351.8330 15.02923009 82962
LEMUR-2-ARIANNA         
1 62699U 25009CU  26204.18158072  .00008151  00000+0  61112-3 0  9992
2 62699  97.6849 285.2770 0001755  20.3119 339.8175 15.02927089 82966
